[{"OBJECT_NAME":"TRANSPORTER-13 OBJECT BC","OBJECT_ID":"2025-052BC","EPOCH":"2026-03-09T15:51:01.832832","MEAN_MOTION":14.94345554,"ECCENTRICITY":0.00011495,"INCLINATION":97.6967,"RA_OF_ASC_NODE":322.0668,"ARG_OF_PERICENTER":20.7823,"MEAN_ANOMALY":339.3444,"EPHEMERIS_TYPE":0,"CLASSIFICATION_TYPE":"U","NORAD_CAT_ID":63260,"ELEMENT_SET_NO":999,"REV_AT_EPOCH":5376,"BSTAR":0.00025427428,"MEAN_MOTION_DOT":2.678e-5,"MEAN_MOTION_DDOT":0},{"OBJECT_NAME":"ATLAS 28E DEB","OBJECT_ID":"1990-031F","EPOCH":"2026-03-09T23:20:22.354944","MEAN_MOTION":14.8907054,"ECCENTRICITY":0.00492653,"INCLINATION":89.9045,"RA_OF_ASC_NODE":245.9973,"ARG_OF_PERICENTER":224.0293,"MEAN_ANOMALY":135.7008,"EPHEMERIS_TYPE":0,"CLASSIFICATION_TYPE":"U","NORAD_CAT_ID":20565,"ELEMENT_SET_NO":999,"REV_AT_EPOCH":36885,"BSTAR":0.00032450895,"MEAN_MOTION_DOT":3.143e-5,"MEAN_MOTION_DDOT":0}]
